NORAD_CAT_ID,OBJECT_NAME,OBJECT_TYPE,EPOCH,MEAN_MOTION,ECCENTRICITY,INCLINATION,RA_OF_ASC_NODE,ARG_OF_PERICENTER,MEAN_ANOMALY,BSTAR,MEAN_MOTION_DOT,MEAN_MOTION_DDOT,TLE_LINE0,TLE_LINE1,TLE_LINE2,SEMIMAJOR_AXIS,PERIOD,APOGEE,PERIGEE,DECAYED
55438.0,STARLINK-5074,PAYLOAD,2023-11-01 18:42:36,14.98328418,0.0002878,70.0011,69.9049,270.7527,89.3303,0.00012241,1.368e-05,0.0,0 STARLINK-5074,1 55438U 23014AZ  23305.77958973  .00001368  00000-0  12241-3 0  9994,2 55438  70.0011  69.9049 0002878 270.7527  89.3303 14.98328418 42468,6950.198,96.107,574.063,570.063,0.0
55438.0,STARLINK-5074,PAYLOAD,2023-11-02 13:56:13,14.98331039,0.0002963,70.0011,67.8856,274.2924,85.7897,3.8991e-05,3.72e-06,0.0,0 STARLINK-5074,1 55438U 23014AZ  23306.58071075  .00000372  00000-0  38991-4 0  9998,2 55438  70.0011  67.8856 0002963 274.2924  85.7897 14.98331039 43525,6950.19,96.107,574.114,569.995,0.0
55438.0,STARLINK-5074,PAYLOAD,2023-11-02 18:44:37,14.98333428,0.0002729,70.0013,67.3808,268.5297,91.5549,7.0036e-05,7.43e-06,0.0,0 STARLINK-5074,1 55438U 23014AZ  23306.78098798  .00000743  00000-0  70036-4 0  9999,2 55438  70.0013  67.3808 0002729 268.5297  91.5549 14.98333428 42610,6950.182,96.107,573.944,570.151,0.0
55438.0,STARLINK-5074,PAYLOAD,2023-11-03 10:45:58,14.98328578,0.0002799,70.0022,65.6991,266.8638,93.22,-4.7427e-05,-6.59e-06,0.0,0 STARLINK-5074,1 55438U 23014AZ  23307.44859370 -.00000659  00000-0 -47427-4 0  9990,2 55438  70.0022  65.6991 0002799 266.8638  93.2200 14.98328578 42715,6950.197,96.107,574.008,570.117,0.0
55438.0,STARLINK-5074,PAYLOAD,2023-11-03 13:58:14,14.98330085,0.0002851,70.0016,65.3618,268.6002,91.483,-3.2543e-05,-4.81e-06,0.0,0 STARLINK-5074,1 55438U 23014AZ  23307.58211219 -.00000481  00000-0 -32543-4 0  9995,2 55438  70.0016  65.3618 0002851 268.6002  91.4830 14.98330085 43676,6950.193,96.107,574.039,570.076,0.0
55438.0,STARLINK-5074,PAYLOAD,2023-11-03 17:10:30,14.98330486,0.0002681,70.0017,65.0249,263.2589,96.8265,-4.2417e-05,-5.99e-06,0.0,0 STARLINK-5074,1 55438U 23014AZ  23307.71563198 -.00000599  00000-0 -42417-4 0  9997,2 55438  70.0017  65.0249 0002681 263.2589  96.8265 14.98330486 43694,6950.191,96.107,573.92,570.193,0.0
55438.0,STARLINK-5074,PAYLOAD,2023-11-04 10:47:59,14.98329212,0.0002951,70.0012,63.1728,269.7387,90.3434,-2.4398e-05,-3.84e-06,0.0,0 STARLINK-5074,1 55438U 23014AZ  23308.44999205 -.00000384  00000-0 -24398-4 0  9990,2 55438  70.0012  63.1728 0002951 269.7387  90.3434 14.98329212 42867,6950.195,96.107,574.111,570.009,0.0
55438.0,STARLINK-5074,PAYLOAD,2023-11-04 14:00:15,14.98330894,0.0002978,70.0014,62.8369,269.7319,90.3498,-8.6184e-06,-1.96e-06,0.0,0 STARLINK-5074,1 55438U 23014AZ  23308.58351032 -.00000196  00000-0 -86184-5 0  9998,2 55438  70.0014  62.8369 0002978 269.7319  90.3498 14.98330894 43825,6950.19,96.107,574.125,569.985,0.0
55438.0,STARLINK-5074,PAYLOAD,2023-11-04 17:12:31,14.98333465,0.0003005,70.0011,62.5,270.4684,89.6131,2.3481e-05,1.87e-06,0.0,0 STARLINK-5074,1 55438U 23014AZ  23308.71702766  .00000187  00000-0  23481-4 0  9995,2 55438  70.0011  62.5000 0003005 270.4684  89.6131 14.98333465 43841,6950.182,96.107,574.136,569.959,0.0
55438.0,STARLINK-5074,PAYLOAD,2023-11-05 10:49:59,14.98331908,0.000296,70.0011,60.6478,269.1318,90.9502,8.6763e-05,9.42e-06,0.0,0 STARLINK-5074,1 55438U 23014AZ  23309.45138548  .00000942  00000-0  86763-4 0  9999,2 55438  70.0011  60.6478 0002960 269.1318  90.9502 14.98331908 43013,6950.187,96.107,574.109,569.995,0.0
55438.0,STARLINK-5074,PAYLOAD,2023-11-05 14:02:10,14.98407376,0.0003088,70.001,60.3096,261.713,98.3679,0.00076081,9.015e-05,0.0,0 STARLINK-5074,1 55438U 23014AZ  23309.58484236  .00009015  00000-0  76081-3 0  9992,2 55438  70.0010  60.3096 0003088 261.7130  98.3679 14.98407376 43972,6949.954,96.102,573.965,569.672,0.0
55438.0,STARLINK-5074,PAYLOAD,2023-11-05 17:14:31,14.98343107,0.0002788,70.0012,59.9738,263.4945,96.5897,0.00017726,2.023e-05,0.0,0 STARLINK-5074,1 55438U 23014AZ  23309.71841444  .00002023  00000-0  17726-3 0  9998,2 55438  70.0012  59.9738 0002788 263.4945  96.5897 14.98343107 43052,6950.152,96.106,573.955,570.08,0.0
55438.0,STARLINK-5074,PAYLOAD,2023-11-06 10:52:02,14.9829605,0.0002782,70.0012,58.123,272.6891,87.3949,-0.00043593,-5.286e-05,0.0,0 STARLINK-5074,1 55438U 23014AZ  23310.45281146 -.00005286  00000-0 -43593-3 0  9995,2 55438  70.0012  58.1230 0002782 272.6891  87.3949 14.98296050 43168,6950.298,96.109,574.096,570.229,0.0
55438.0,STARLINK-5074,PAYLOAD,2023-11-06 14:04:19,14.9829297,0.0002811,70.0013,57.7867,268.2759,91.8078,-0.00045948,-5.566e-05,0.0,0 STARLINK-5074,1 55438U 23014AZ  23310.58633616 -.00005566  00000-0 -45948-3 0  9999,2 55438  70.0013  57.7867 0002811 268.2759  91.8078 14.98292970 44124,6950.307,96.109,574.126,570.219,0.0
55438.0,STARLINK-5074,PAYLOAD,2023-11-06 17:16:35,14.98292074,0.0002847,70.0013,57.45,268.2572,91.8261,-0.00045683,-5.534e-05,0.0,0 STARLINK-5074,1 55438U 23014AZ  23310.71985911 -.00005534  00000-0 -45683-3 0  9993,2 55438  70.0013  57.4500 0002847 268.2572  91.8261 14.98292074 44148,6950.31,96.109,574.154,570.196,0.0
55438.0,STARLINK-5074,PAYLOAD,2023-11-07 10:54:04,14.98308856,0.0002716,70.0016,55.5969,272.6057,87.4791,-0.00030833,-3.768e-05,0.0,0 STARLINK-5074,1 55438U 23014AZ  23311.45421594 -.00003768  00000-0 -30833-3 0  9995,2 55438  70.0016  55.5969 0002716 272.6057  87.4791 14.98308856 43314,6950.258,96.108,574.011,570.236,0.0
55438.0,STARLINK-5074,PAYLOAD,2023-11-07 14:06:19,14.98318894,0.0002701,70.0016,55.2634,265.7847,94.3003,-0.00024653,-3.032e-05,0.0,0 STARLINK-5074,1 55438U 23014AZ  23311.58772879 -.00003032  00000-0 -24653-3 0  9991,2 55438  70.0016  55.2634 0002701 265.7847  94.3003 14.98318894 44276,6950.227,96.108,573.969,570.215,0.0
55438.0,STARLINK-5074,PAYLOAD,2023-11-07 17:18:35,14.98320476,0.0002856,70.0012,54.9257,267.275,92.8082,-0.00021701,-2.681e-05,0.0,0 STARLINK-5074,1 55438U 23014AZ  23311.72124796 -.00002681  00000-0 -21701-3 0  9996,2 55438  70.0012  54.9257 0002856 267.2750  92.8082 14.98320476 43357,6950.222,96.108,574.072,570.102,0.0
55438.0,STARLINK-5074,PAYLOAD,2023-11-07 23:43:06,14.98352999,0.0003242,70.001,54.2514,269.2955,90.7832,-0.00045685,-5.543e-05,0.0,0 STARLINK-5074,1 55438U 23014AZ  23311.98827305 -.00005543  00000-0 -45685-3 0  9997,2 55438  70.0010  54.2514 0003242 269.2955  90.7832 14.98352999 43392,6950.122,96.106,574.24,569.734,0.0
55438.0,STARLINK-5074,PAYLOAD,2023-11-08 14:08:18,14.98343334,0.0002403,70.0013,52.7364,265.1923,94.8962,6.3266e-05,6.62e-06,0.0,0 STARLINK-5074,1 55438U 23014AZ  23312.58910568  .00000662  00000-0  63266-4 0  9999,2 55438  70.0013  52.7364 0002403 265.1923  94.8962 14.98343334 44426,6950.152,96.106,573.687,570.347,0.0
55438.0,STARLINK-5074,PAYLOAD,2023-11-08 17:20:38,14.9829343,0.0002563,70.0033,52.4025,272.3304,87.7562,-0.00043561,-5.282e-05,0.0,0 STARLINK-5074,1 55438U 23014AZ  23312.72266624 -.00005282  00000-0 -43561-3 0  9992,2 55438  70.0033  52.4025 0002563 272.3304  87.7562 14.98293430 43505,6950.306,96.109,573.952,570.39,0.0
55438.0,STARLINK-5074,PAYLOAD,2023-11-08 23:45:07,14.98323335,0.0002523,70.0027,51.7277,267.7779,92.3091,0.00035398,4.132e-05,0.0,0 STARLINK-5074,1 55438U 23014AZ  23312.98967253  .00004132  00000-0  35398-3 0  9996,2 55438  70.0027  51.7277 0002523 267.7779  92.3091 14.98323335 43540,6950.214,96.107,573.832,570.325,0.0
55438.0,STARLINK-5074,PAYLOAD,2023-11-09 14:10:20,14.98328007,0.0002391,70.0025,50.2136,260.1669,99.922,0.00020438,2.346e-05,0.0,0 STARLINK-5074,1 55438U 23014AZ  23313.59051523  .00002346  00000-0  20438-3 0  9992,2 55438  70.0025  50.2136 0002391 260.1669  99.9220 14.98328007 44576,6950.199,96.107,573.726,570.402,0.0
55438.0,STARLINK-5074,PAYLOAD,2023-11-09 15:46:28,14.98328482,0.000232,70.0026,50.0451,258.9661,101.1238,0.00020483,2.352e-05,0.0,0 STARLINK-5074,1 55438U 23014AZ  23313.65727497  .00002352  00000-0  20483-3 0  9996,2 55438  70.0026  50.0451 0002320 258.9661 101.1238 14.98328482 44587,6950.198,96.107,573.675,570.45,0.0
55438.0,STARLINK-5074,PAYLOAD,2023-11-09 23:47:08,14.98355288,0.0002657,70.0038,49.2033,268.1279,91.9576,-0.00039766,-4.837e-05,0.0,0 STARLINK-5074,1 55438U 23014AZ  23313.99107170 -.00004837  00000-0 -39766-3 0  9999,2 55438  70.0038  49.2033 0002657 268.1279  91.9576 14.98355288 43693,6950.115,96.105,573.826,570.133,0.0
55438.0,STARLINK-5074,PAYLOAD,2023-11-10 12:36:13,14.98339028,0.0002697,70.0019,47.857,266.5304,93.5546,-9.1497e-05,-1.185e-05,0.0,0 STARLINK-5074,1 55438U 23014AZ  23314.52515249 -.00001185  00000-0 -91497-4 0  9992,2 55438  70.0019  47.8570 0002697 266.5304  93.5546 14.98339028 43775,6950.165,96.106,573.904,570.156,0.0
55438.0,STARLINK-5074,PAYLOAD,2023-11-10 14:12:21,14.98337113,0.0002883,70.0015,47.6887,269.164,90.9188,-9.4892e-05,-1.225e-05,0.0,0 STARLINK-5074,1 55438U 23014AZ  23314.59191336 -.00001225  00000-0 -94892-4 0  9993,2 55438  70.0015  47.6887 0002883 269.1640  90.9188 14.98337113 44721,6950.171,96.107,574.04,570.032,0.0
55438.0,STARLINK-5074,PAYLOAD,2023-11-10 15:48:29,14.98337526,0.0002866,70.0016,47.5204,268.9924,91.0907,-8.8015e-05,-1.143e-05,0.0,0 STARLINK-5074,1 55438U 23014AZ  23314.65867255 -.00001143  00000-0 -88015-4 0  9999,2 55438  70.0016  47.5204 0002866 268.9924  91.0907 14.98337526 44737,6950.17,96.107,574.027,570.043,0.0
55438.0,STARLINK-5074,PAYLOAD,2023-11-11 12:38:13,14.98333762,0.0002992,70.0001,45.3298,265.9536,94.1281,-4.0139e-05,-5.72e-06,0.0,0 STARLINK-5074,1 55438U 23014AZ  23315.52655001 -.00000572  00000-0 -40139-4 0  9990,2 55438  70.0001  45.3298 0002992 265.9536  94.1281 14.98333762 43923,6950.181,96.107,574.126,569.967,0.0
55438.0,STARLINK-5074,PAYLOAD,2023-11-11 14:14:21,14.983335,0.0003089,70.0002,45.1616,267.1337,92.9468,-4.5625e-05,-6.37e-06,0.0,0 STARLINK-5074,1 55438U 23014AZ  23315.59331001 -.00000637  00000-0 -45625-4 0  9995,2 55438  70.0002  45.1616 0003089 267.1337  92.9468 14.98333500 44875,6950.182,96.107,574.194,569.9,0.0
